[{"OBJECT_NAME":"SHIYAN-28B 01","OBJECT_ID":"2025-145A","EPOCH":"2026-03-08T20:29:47.684832","MEAN_MOTION":14.29356521,"ECCENTRICITY":0.00033669,"INCLINATION":10.9981,"RA_OF_ASC_NODE":260.401,"ARG_OF_PERICENTER":306.4747,"MEAN_ANOMALY":53.517,"EPHEMERIS_TYPE":0,"CLASSIFICATION_TYPE":"U","NORAD_CAT_ID":64753,"ELEMENT_SET_NO":999,"REV_AT_EPOCH":3553,"BSTAR":0.00013091269,"MEAN_MOTION_DOT":7.71e-6,"MEAN_MOTION_DDOT":0},{"OBJECT_NAME":"COSMOS 374 DEB","OBJECT_ID":"1970-089CW","EPOCH":"2026-03-09T03:15:05.416704","MEAN_MOTION":14.81622526,"ECCENTRICITY":0.02351408,"INCLINATION":62.872,"RA_OF_ASC_NODE":339.5893,"ARG_OF_PERICENTER":12.2958,"MEAN_ANOMALY":348.3731,"EPHEMERIS_TYPE":0,"CLASSIFICATION_TYPE":"U","NORAD_CAT_ID":14122,"ELEMENT_SET_NO":999,"REV_AT_EPOCH":22578,"BSTAR":0.0042555676,"MEAN_MOTION_DOT":0.00054686,"MEAN_MOTION_DDOT":0}]
